{"type": "FeatureCollection", "features": [{"type": "Feature", "properties": {"norad_id": 25590, "name": "COSMOS 2361", "group": "musson", "lat": -17.583063524137025, "lon": -20.913342872176663, "alt_km": 991.890164050862, "timestamp": "2025-12-16T10:53:45.739138+00:00", "meta": {"OBJECT_NAME": "COSMOS 2361", "OBJECT_ID": "1998-076A", "EPOCH": "2025-12-15T23:01:27.638688", "MEAN_MOTION": 13.73217889, "ECCENTRICITY": 0.00300759, "INCLINATION": 82.934, "RA_OF_ASC_NODE": 341.7049, "ARG_OF_PERICENTER": 256.2718, "MEAN_ANOMALY": 161.7871, "EPHEMERIS_TYPE": 0, "CLASSIFICATION_TYPE": "U", "NORAD_CAT_ID": 25590, "ELEMENT_SET_NO": 999, "REV_AT_EPOCH": 35155, "BSTAR": 7.1702522e-05, "MEAN_MOTION_DOT": 8.1e-07, "MEAN_MOTION_DDOT": 0}, "tle": {"line1": "1 25590U 98076A   25349.95934767  .00000081  00000+0  71703-4 0  9994", "line2": "2 25590  82.9340 341.7049 0030075 256.2718 161.7871 13.73217889351552"}}, "geometry": {"type": "Point", "coordinates": [-20.913342872176663, -17.583063524137025]}}, {"type": "Feature", "properties": {"norad_id": 26818, "name": "COSMOS 2378", "group": "musson", "lat": 65.6920834099015, "lon": 12.924612785012076, "alt_km": 992.9611091659835, "timestamp": "2025-12-16T10:53:45.739159+00:00", "meta": {"OBJECT_NAME": "COSMOS 2378", "OBJECT_ID": "2001-023A", "EPOCH": "2025-12-15T19:41:11.148288", "MEAN_MOTION": 13.74142207, "ECCENTRICITY": 0.00325815, "INCLINATION": 82.9272, "RA_OF_ASC_NODE": 357.4406, "ARG_OF_PERICENTER": 196.1914, "MEAN_ANOMALY": 337.571, "EPHEMERIS_TYPE": 0, "CLASSIFICATION_TYPE": "U", "NORAD_CAT_ID": 26818, "ELEMENT_SET_NO": 999, "REV_AT_EPOCH": 22965, "BSTAR": 5.1347142e-05, "MEAN_MOTION_DOT": 6.4e-07, "MEAN_MOTION_DDOT": 0}, "tle": {"line1": "1 26818U 01023A   25349.82026792  .00000064  00000+0  51347-4 0  9993", "line2": "2 26818  82.9272 357.4406 0032581 196.1914 337.5710 13.74142207229657"}}, "geometry": {"type": "Point", "coordinates": [12.924612785012076, 65.6920834099015]}}, {"type": "Feature", "properties": {"norad_id": 27436, "name": "COSMOS 2389", "group": "musson", "lat": -71.66384876847665, "lon": -77.6876298779408, "alt_km": 1007.6963345890608, "timestamp": "2025-12-16T10:53:45.739173+00:00", "meta": {"OBJECT_NAME": "COSMOS 2389", "OBJECT_ID": "2002-026A", "EPOCH": "2025-12-15T23:20:17.340288", "MEAN_MOTION": 13.75155042, "ECCENTRICITY": 0.004755, "INCLINATION": 82.9505, "RA_OF_ASC_NODE": 304.5915, "ARG_OF_PERICENTER": 51.9667, "MEAN_ANOMALY": 12.754, "EPHEMERIS_TYPE": 0, "CLASSIFICATION_TYPE": "U", "NORAD_CAT_ID": 27436, "ELEMENT_SET_NO": 999, "REV_AT_EPOCH": 18193, "BSTAR": 5.3997368e-05, "MEAN_MOTION_DOT": 6.8e-07, "MEAN_MOTION_DDOT": 0}, "tle": {"line1": "1 27436U 02026A   25349.97242292  .00000068  00000+0  53997-4 0  9992", "line2": "2 27436  82.9505 304.5915 0047550  51.9667  12.7540 13.75155042181939"}}, "geometry": {"type": "Point", "coordinates": [-77.6876298779408, -71.66384876847665]}}, {"type": "Feature", "properties": {"norad_id": 27818, "name": "COSMOS 2398", "group": "musson", "lat": -23.442359691409937, "lon": 93.03797039092206, "alt_km": 1001.2336853594425, "timestamp": "2025-12-16T10:53:45.739185+00:00", "meta": {"OBJECT_NAME": "COSMOS 2398", "OBJECT_ID": "2003-023A", "EPOCH": "2025-12-15T22:00:22.338144", "MEAN_MOTION": 13.72386015, "ECCENTRICITY": 0.0032675, "INCLINATION": 82.9484, "RA_OF_ASC_NODE": 270.3571, "ARG_OF_PERICENTER": 103.2951, "MEAN_ANOMALY": 327.878, "EPHEMERIS_TYPE": 0, "CLASSIFICATION_TYPE": "U", "NORAD_CAT_ID": 27818, "ELEMENT_SET_NO": 999, "REV_AT_EPOCH": 12860, "BSTAR": 3.6432976e-05, "MEAN_MOTION_DOT": 4.9e-07, "MEAN_MOTION_DDOT": 0}, "tle": {"line1": "1 27818U 03023A   25349.91692521  .00000049  00000+0  36433-4 0  9997", "line2": "2 27818  82.9484 270.3571 0032675 103.2951 327.8780 13.72386015128600"}}, "geometry": {"type": "Point", "coordinates": [93.03797039092206, -23.442359691409937]}}, {"type": "Feature", "properties": {"norad_id": 28380, "name": "COSMOS 2407", "group": "musson", "lat": 82.7609669875847, "lon": -46.460544716340074, "alt_km": 949.2760257333857, "timestamp": "2025-12-16T10:53:45.739196+00:00", "meta": {"OBJECT_NAME": "COSMOS 2407", "OBJECT_ID": "2004-028A", "EPOCH": "2025-12-15T20:33:17.368128", "MEAN_MOTION": 13.76313998, "ECCENTRICITY": 0.00402117, "INCLINATION": 82.9602, "RA_OF_ASC_NODE": 210.5852, "ARG_OF_PERICENTER": 46.3771, "MEAN_ANOMALY": 325.9261, "EPHEMERIS_TYPE": 0, "CLASSIFICATION_TYPE": "U", "NORAD_CAT_ID": 28380, "ELEMENT_SET_NO": 999, "REV_AT_EPOCH": 7466, "BSTAR": 6.3752134e-05, "MEAN_MOTION_DOT": 7.8e-07, "MEAN_MOTION_DDOT": 0}, "tle": {"line1": "1 28380U 04028A   25349.85645102  .00000078  00000+0  63752-4 0  9990", "line2": "2 28380  82.9602 210.5852 0040211  46.3771 325.9261 13.76313998 74660"}}, "geometry": {"type": "Point", "coordinates": [-46.460544716340074, 82.7609669875847]}}, {"type": "Feature", "properties": {"norad_id": 28521, "name": "COSMOS 2414", "group": "musson", "lat": 29.942775905726073, "lon": -2.2370273654176267, "alt_km": 906.2535413494015, "timestamp": "2025-12-16T10:53:45.739207+00:00", "meta": {"OBJECT_NAME": "COSMOS 2414", "OBJECT_ID": "2005-002A", "EPOCH": "2025-12-15T22:04:05.071296", "MEAN_MOTION": 13.87903398, "ECCENTRICITY": 0.00410678, "INCLINATION": 82.9489, "RA_OF_ASC_NODE": 182.2554, "ARG_OF_PERICENTER": 130.806, "MEAN_ANOMALY": 229.6678, "EPHEMERIS_TYPE": 0, "CLASSIFICATION_TYPE": "U", "NORAD_CAT_ID": 28521, "ELEMENT_SET_NO": 999, "REV_AT_EPOCH": 5839, "BSTAR": 7.0644113e-05, "MEAN_MOTION_DOT": 1.01e-06, "MEAN_MOTION_DDOT": 0}, "tle": {"line1": "1 28521U 05002A   25349.91950314  .00000101  00000+0  70644-4 0  9996", "line2": "2 28521  82.9489 182.2554 0041067 130.8060 229.6678 13.87903398 58399"}}, "geometry": {"type": "Point", "coordinates": [-2.2370273654176267, 29.942775905726073]}}, {"type": "Feature", "properties": {"norad_id": 32052, "name": "COSMOS 2429", "group": "musson", "lat": 65.31432778825958, "lon": 145.0224381674599, "alt_km": 972.6624792003468, "timestamp": "2025-12-16T10:53:45.739218+00:00", "meta": {"OBJECT_NAME": "COSMOS 2429", "OBJECT_ID": "2007-038A", "EPOCH": "2025-12-15T22:07:28.659072", "MEAN_MOTION": 13.75149724, "ECCENTRICITY": 0.00390712, "INCLINATION": 82.9804, "RA_OF_ASC_NODE": 340.9627, "ARG_OF_PERICENTER": 29.1624, "MEAN_ANOMALY": 331.1702, "EPHEMERIS_TYPE": 0, "CLASSIFICATION_TYPE": "U", "NORAD_CAT_ID": 32052, "ELEMENT_SET_NO": 999, "REV_AT_EPOCH": 91646, "BSTAR": 6.7482628e-05, "MEAN_MOTION_DOT": 8e-07, "MEAN_MOTION_DDOT": 0}, "tle": {"line1": "1 32052U 07038A   25349.92185948  .00000080  00000+0  67483-4 0  9998", "line2": "2 32052  82.9804 340.9627 0039071  29.1624 331.1702 13.75149724916466"}}, "geometry": {"type": "Point", "coordinates": [145.0224381674599, 65.31432778825958]}}, {"type": "Feature", "properties": {"norad_id": 35635, "name": "COSMOS 2454", "group": "musson", "lat": -46.48826892732544, "lon": -6.686857228807288, "alt_km": 949.8977178170053, "timestamp": "2025-12-16T10:53:45.739229+00:00", "meta": {"OBJECT_NAME": "COSMOS 2454", "OBJECT_ID": "2009-039A", "EPOCH": "2025-12-15T22:15:24.335136", "MEAN_MOTION": 13.89929031, "ECCENTRICITY": 0.00203829, "INCLINATION": 82.9554, "RA_OF_ASC_NODE": 166.2285, "ARG_OF_PERICENTER": 65.2403, "MEAN_ANOMALY": 47.9084, "EPHEMERIS_TYPE": 0, "CLASSIFICATION_TYPE": "U", "NORAD_CAT_ID": 35635, "ELEMENT_SET_NO": 999, "REV_AT_EPOCH": 83194, "BSTAR": 6.0235159e-05, "MEAN_MOTION_DOT": 9e-07, "MEAN_MOTION_DDOT": 0}, "tle": {"line1": "1 35635U 09039A   25349.92736499  .00000090  00000+0  60235-4 0  9993", "line2": "2 35635  82.9554 166.2285 0020382  65.2403  47.9084 13.89929031831944"}}, "geometry": {"type": "Point", "coordinates": [-6.686857228807288, -46.48826892732544]}}, {"type": "Feature", "properties": {"norad_id": 36519, "name": "COSMOS 2463", "group": "musson", "lat": 23.030674166912114, "lon": 26.994078392342686, "alt_km": 1000.1069247065961, "timestamp": "2025-12-16T10:53:45.739240+00:00", "meta": {"OBJECT_NAME": "COSMOS 2463", "OBJECT_ID": "2010-017A", "EPOCH": "2025-12-15T19:52:32.898720", "MEAN_MOTION": 13.71649378, "ECCENTRICITY": 0.00347441, "INCLINATION": 82.961, "RA_OF_ASC_NODE": 24.4431, "ARG_OF_PERICENTER": 279.1449, "MEAN_ANOMALY": 255.1525, "EPHEMERIS_TYPE": 0, "CLASSIFICATION_TYPE": "U", "NORAD_CAT_ID": 36519, "ELEMENT_SET_NO": 999, "REV_AT_EPOCH": 78279, "BSTAR": 5.1047986e-05, "MEAN_MOTION_DOT": 6.1e-07, "MEAN_MOTION_DDOT": 0}, "tle": {"line1": "1 36519U 10017A   25349.82815855  .00000061  00000+0  51048-4 0  9996", "line2": "2 36519  82.9610  24.4431 0034744 279.1449 255.1525 13.71649378782795"}}, "geometry": {"type": "Point", "coordinates": [26.994078392342686, 23.030674166912114]}}]}